[{"OBJECT_NAME":"QIANFAN-64","OBJECT_ID":"2025-016K","EPOCH":"2026-03-09T23:33:58.082400","MEAN_MOTION":13.51005739,"ECCENTRICITY":0.00162512,"INCLINATION":88.9674,"RA_OF_ASC_NODE":93.9918,"ARG_OF_PERICENTER":90.3417,"MEAN_ANOMALY":269.9596,"EPHEMERIS_TYPE":0,"CLASSIFICATION_TYPE":"U","NORAD_CAT_ID":62794,"ELEMENT_SET_NO":999,"REV_AT_EPOCH":5904,"BSTAR":4.1237248e-5,"MEAN_MOTION_DOT":3.9e-7,"MEAN_MOTION_DDOT":0},{"OBJECT_NAME":"SL-16 DEB","OBJECT_ID":"1995-058E","EPOCH":"2026-03-09T20:52:39.588096","MEAN_MOTION":13.76710726,"ECCENTRICITY":0.01835796,"INCLINATION":71.0483,"RA_OF_ASC_NODE":237.3992,"ARG_OF_PERICENTER":35.1168,"MEAN_ANOMALY":83.5104,"EPHEMERIS_TYPE":0,"CLASSIFICATION_TYPE":"U","NORAD_CAT_ID":23708,"ELEMENT_SET_NO":999,"REV_AT_EPOCH":52444,"BSTAR":0.00015293281,"MEAN_MOTION_DOT":1.28e-6,"MEAN_MOTION_DDOT":0}]
